[{"OBJECT_NAME":"NUSAT-41 (C PAYNE-G)","OBJECT_ID":"2023-084N","EPOCH":"2026-03-09T21:55:54.837696","MEAN_MOTION":15.29680045,"ECCENTRICITY":0.00062175,"INCLINATION":97.5351,"RA_OF_ASC_NODE":204.1011,"ARG_OF_PERICENTER":322.2064,"MEAN_ANOMALY":37.8738,"EPHEMERIS_TYPE":0,"CLASSIFICATION_TYPE":"U","NORAD_CAT_ID":56944,"ELEMENT_SET_NO":999,"REV_AT_EPOCH":15260,"BSTAR":0.00059912824,"MEAN_MOTION_DOT":0.0001718,"MEAN_MOTION_DDOT":0},{"OBJECT_NAME":"STARLINK-31656","OBJECT_ID":"2024-132J","EPOCH":"2026-03-09T22:50:01.918176","MEAN_MOTION":15.30171016,"ECCENTRICITY":0.00011503,"INCLINATION":53.1601,"RA_OF_ASC_NODE":50.9923,"ARG_OF_PERICENTER":79.4511,"MEAN_ANOMALY":280.6619,"EPHEMERIS_TYPE":0,"CLASSIFICATION_TYPE":"U","NORAD_CAT_ID":60286,"ELEMENT_SET_NO":999,"REV_AT_EPOCH":9160,"BSTAR":-5.4772808e-5,"MEAN_MOTION_DOT":-1.979e-5,"MEAN_MOTION_DDOT":0}]
